NORAD_CAT_ID,OBJECT_NAME,OBJECT_TYPE,EPOCH,MEAN_MOTION,ECCENTRICITY,INCLINATION,RA_OF_ASC_NODE,ARG_OF_PERICENTER,MEAN_ANOMALY,BSTAR,MEAN_MOTION_DOT,MEAN_MOTION_DDOT,TLE_LINE0,TLE_LINE1,TLE_LINE2,SEMIMAJOR_AXIS,PERIOD,APOGEE,PERIGEE,DECAYED
52276.0,STARLINK-3778,PAYLOAD,2024-06-09 02:48:42,15.08832133,0.0001245,53.2158,95.782,73.1793,286.9336,6.0416e-05,6.74e-06,0.0,0 STARLINK-3778,1 52276U 22041R   24161.11715985  .00000674  00000-0  60416-4 0  9990,2 52276  53.2158  95.7820 0001245  73.1793 286.9336 15.08832133119182,6917.904,95.438,540.631,538.908,0.0
52276.0,STARLINK-3778,PAYLOAD,2024-06-10 04:14:52,15.08841925,0.000129,53.2166,91.0264,84.2715,275.8424,8.0452e-05,9.93e-06,0.0,0 STARLINK-3778,1 52276U 22041R   24162.17699887  .00000993  00000-0  80452-4 0  9995,2 52276  53.2166  91.0264 0001290  84.2715 275.8424 15.08841925119341,6917.875,95.437,540.632,538.847,0.0
52276.0,STARLINK-3778,PAYLOAD,2024-06-10 12:11:47,15.0885542,0.00013,53.2172,89.5395,84.6053,275.5088,9.1295e-05,1.166e-05,0.0,0 STARLINK-3778,1 52276U 22041R   24162.50818844  .00001166  00000-0  91295-4 0  9998,2 52276  53.2172  89.5395 0001300  84.6053 275.5088 15.08855420119399,6917.833,95.437,540.598,538.799,0.0
52276.0,STARLINK-3778,PAYLOAD,2024-06-11 04:05:40,15.08835032,0.000148,53.2174,86.5647,72.75,287.3654,0.00010675,1.411e-05,0.0,0 STARLINK-3778,1 52276U 22041R   24163.17060610  .00001411  00000-0  10675-3 0  9997,2 52276  53.2174  86.5647 0001480  72.7500 287.3654 15.08835032119490,6917.896,95.438,540.784,538.737,0.0
52276.0,STARLINK-3778,PAYLOAD,2024-06-11 12:02:35,15.08845763,0.0001515,53.2174,85.0802,82.9219,277.1945,0.00021088,3.07e-05,0.0,0 STARLINK-3778,1 52276U 22041R   24163.50179849  .00003070  00000-0  21088-3 0  9992,2 52276  53.2174  85.0802 0001515  82.9219 277.1945 15.08845763118329,6917.863,95.437,540.776,538.68,0.0
52276.0,STARLINK-3778,PAYLOAD,2024-06-12 02:21:04,15.08830542,0.0001393,53.2169,82.4029,92.8479,267.2672,-6.046e-05,-1.25e-05,0.0,0 STARLINK-3778,1 52276U 22041R   24164.09797070 -.00001250  00000-0 -60460-4 0  9997,2 52276  53.2169  82.4029 0001393  92.8479 267.2672 15.08830542118413,6917.909,95.438,540.738,538.811,0.0
52276.0,STARLINK-3778,PAYLOAD,2024-06-12 11:53:22,15.08845456,0.0001289,53.2164,80.6186,92.7935,267.3205,0.0001196,1.616e-05,0.0,0 STARLINK-3778,1 52276U 22041R   24164.49540176  .00001616  00000-0  11960-3 0  9998,2 52276  53.2164  80.6186 0001289  92.7935 267.3205 15.08845456119696,6917.864,95.437,540.62,538.837,0.0
52276.0,STARLINK-3778,PAYLOAD,2024-06-13 11:44:09,15.08851911,0.000153,53.2171,76.1534,111.534,248.5815,0.00041023,6.249e-05,0.0,0 STARLINK-3778,1 52276U 22041R   24165.48900176  .00006249  00000-0  41023-3 0  9998,2 52276  53.2171  76.1534 0001530 111.5340 248.5815 15.08851911118623,6917.844,95.437,540.767,538.651,0.0
52276.0,STARLINK-3778,PAYLOAD,2024-06-13 22:51:52,15.08839724,0.0001707,53.2183,74.0735,105.4867,254.6314,0.00013898,1.924e-05,0.0,0 STARLINK-3778,1 52276U 22041R   24165.95268654  .00001924  00000-0  13898-3 0  9992,2 52276  53.2183  74.0735 0001707 105.4867 254.6314 15.08839724118695,6917.881,95.438,540.927,538.565,0.0
52276.0,STARLINK-3778,PAYLOAD,2024-06-14 00:27:15,15.08839745,0.0001785,53.2187,73.7749,112.8775,247.2406,8.8813e-05,1.126e-05,0.0,0 STARLINK-3778,1 52276U 22041R   24166.01892584  .00001126  00000-0  88813-4 0  9999,2 52276  53.2187  73.7749 0001785 112.8775 247.2406 15.08839745118701,6917.881,95.438,540.981,538.511,0.0
52276.0,STARLINK-3778,PAYLOAD,2024-06-14 22:42:39,15.08840926,0.0001509,53.2179,69.6147,96.6145,263.5019,4.8807e-05,4.89e-06,0.0,0 STARLINK-3778,1 52276U 22041R   24166.94628614  .00000489  00000-0  48807-4 0  9992,2 52276  53.2179  69.6147 0001509  96.6145 263.5019 15.08840926118841,6917.878,95.437,540.786,538.699,0.0
52276.0,STARLINK-3778,PAYLOAD,2024-06-15 00:18:02,15.08842495,0.0001423,53.2178,69.3164,98.9042,261.2111,1.5224e-05,-4.6e-07,0.0,0 STARLINK-3778,1 52276U 22041R   24167.01252510 -.00000046  00000-0  15224-4 0  9996,2 52276  53.2178  69.3164 0001423  98.9042 261.2111 15.08842495118854,6917.873,95.437,540.722,538.753,0.0
52276.0,STARLINK-3778,PAYLOAD,2024-06-15 22:33:26,15.08840076,0.0001398,53.2177,65.1534,97.1283,262.9868,0.0001543,2.169e-05,0.0,0 STARLINK-3778,1 52276U 22041R   24167.93988699  .00002169  00000-0  15430-3 0  9996,2 52276  53.2177  65.1534 0001398  97.1283 262.9868 15.08840076118992,6917.88,95.438,540.712,538.778,0.0
52276.0,STARLINK-3778,PAYLOAD,2024-06-16 09:41:07,15.08852223,0.0001351,53.2184,63.0758,96.779,263.3356,0.00020521,2.981e-05,0.0,0 STARLINK-3778,1 52276U 22041R   24168.40355967  .00002981  00000-0  20521-3 0  9994,2 52276  53.2184  63.0758 0001351  96.7790 263.3356 15.08852223119065,6917.843,95.437,540.643,538.773,0.0
52276.0,STARLINK-3778,PAYLOAD,2024-06-16 22:24:13,15.08832533,0.0001723,53.2196,60.6992,107.9968,252.1212,2.3138e-05,8e-07,0.0,0 STARLINK-3778,1 52276U 22041R   24168.93349122  .00000080  00000-0  23138-4 0  9994,2 52276  53.2196  60.6992 0001723 107.9968 252.1212 15.08832533119144,6917.903,95.438,540.96,538.576,0.0
52276.0,STARLINK-3778,PAYLOAD,2024-06-17 20:39:37,15.08836915,0.0001567,53.2194,56.535,94.5373,265.5798,6.4504e-05,7.39e-06,0.0,0 STARLINK-3778,1 52276U 22041R   24169.86085175  .00000739  00000-0  64504-4 0  9995,2 52276  53.2194  56.5350 0001567  94.5373 265.5798 15.08836915120508,6917.89,95.438,540.839,538.671,0.0
52276.0,STARLINK-3778,PAYLOAD,2024-06-17 22:15:00,15.08837755,0.0001555,53.2191,56.2376,94.3215,265.7955,7.9487e-05,9.77e-06,0.0,0 STARLINK-3778,1 52276U 22041R   24169.92709156  .00000977  00000-0  79487-4 0  9994,2 52276  53.2191  56.2376 0001555  94.3215 265.7955 15.08837755119294,6917.887,95.438,540.828,538.677,0.0
52276.0,STARLINK-3778,PAYLOAD,2024-06-18 09:22:42,15.0885292,0.0001512,53.2188,54.1548,82.4211,277.6953,0.00033024,4.974e-05,0.0,0 STARLINK-3778,1 52276U 22041R   24170.39076462  .00004974  00000-0  33024-3 0  9991,2 52276  53.2188  54.1548 0001512  82.4211 277.6953 15.08852920120580,6917.841,95.437,540.752,538.66,0.0
52276.0,STARLINK-3778,PAYLOAD,2024-06-18 20:30:24,15.08837513,0.0001592,53.219,52.0744,88.7114,271.4061,9.8265e-05,1.276e-05,0.0,0 STARLINK-3778,1 52276U 22041R   24170.85445131  .00001276  00000-0  98265-4 0  9996,2 52276  53.2190  52.0744 0001592  88.7114 271.4061 15.08837513120658,6917.888,95.438,540.854,538.652,0.0
52276.0,STARLINK-3778,PAYLOAD,2024-06-19 09:13:29,15.08848095,0.0001569,53.2187,49.6952,85.2861,274.8311,0.00022162,3.242e-05,0.0,0 STARLINK-3778,1 52276U 22041R   24171.38436693  .00003242  00000-0  22162-3 0  9995,2 52276  53.2187  49.6952 0001569  85.2861 274.8311 15.08848095120733,6917.856,95.437,540.806,538.635,0.0
52276.0,STARLINK-3778,PAYLOAD,2024-06-19 20:21:11,15.08834896,0.0001428,53.2169,47.6113,92.3981,267.7174,-1.7507e-05,-5.67e-06,0.0,0 STARLINK-3778,1 52276U 22041R   24171.84805208 -.00000567  00000-0 -17507-4 0  9995,2 52276  53.2169  47.6113 0001428  92.3981 267.7174 15.08834896120806,6917.896,95.438,540.749,538.773,0.0
52276.0,STARLINK-3778,PAYLOAD,2024-06-19 21:56:34,15.08836064,0.0001359,53.2165,47.3117,100.4047,259.7098,-4.1423e-05,-9.47e-06,0.0,0 STARLINK-3778,1 52276U 22041R   24171.91429061 -.00000947  00000-0 -41423-4 0  9998,2 52276  53.2165  47.3117 0001359 100.4047 259.7098 15.08836064119599,6917.892,95.438,540.698,538.817,0.0
52276.0,STARLINK-3778,PAYLOAD,2024-06-20 09:04:16,15.08850153,0.0001319,53.2171,45.2325,89.0086,271.1057,0.00016631,2.361e-05,0.0,0 STARLINK-3778,1 52276U 22041R   24172.37796509  .00002361  00000-0  16631-3 0  9995,2 52276  53.2171  45.2325 0001319  89.0086 271.1057 15.08850153119661,6917.849,95.437,540.627,538.802,0.0
52276.0,STARLINK-3778,PAYLOAD,2024-06-20 21:47:21,15.08842813,0.0001351,53.2165,42.853,123.151,236.9612,9.2681e-05,1.188e-05,0.0,0 STARLINK-3778,1 52276U 22041R   24172.90788766  .00001188  00000-0  92681-4 0  9996,2 52276  53.2165  42.8530 0001351 123.1510 236.9612 15.08842813120968,6917.872,95.437,540.671,538.802,0.0
52276.0,STARLINK-3778,PAYLOAD,2024-06-21 20:02:46,15.08836289,0.0001463,53.2175,38.6932,91.1962,268.9198,9.4981e-05,1.224e-05,0.0,0 STARLINK-3778,1 52276U 22041R   24173.83525533  .00001224  00000-0  94981-4 0  9996,2 52276  53.2175  38.6932 0001463  91.1962 268.9198 15.08836289121108,6917.892,95.438,540.769,538.745,0.0
52276.0,STARLINK-3778,PAYLOAD,2024-06-21 21:38:09,15.08837463,0.0001511,53.2191,38.3943,98.4789,261.6374,3.8593e-05,3.26e-06,0.0,0 STARLINK-3778,1 52276U 22041R   24173.90149549  .00000326  00000-0  38593-4 0  9992,2 52276  53.2191  38.3943 0001511  98.4789 261.6374 15.08837463119890,6917.888,95.438,540.798,538.708,0.0
52276.0,STARLINK-3778,PAYLOAD,2024-06-22 21:28:56,15.0883951,0.0001344,53.2179,33.9329,94.6023,265.5122,0.00010526,1.388e-05,0.0,0 STARLINK-3778,1 52276U 22041R   24174.89509348  .00001388  00000-0  10526-3 0  9992,2 52276  53.2179  33.9329 0001344  94.6023 265.5122 15.08839510120046,6917.882,95.438,540.677,538.817,0.0
52276.0,STARLINK-3778,PAYLOAD,2024-06-23 14:58:10,15.08839308,0.0001359,53.2179,30.6601,92.7585,267.3563,0.0001198,1.619e-05,0.0,0 STARLINK-3778,1 52276U 22041R   24175.62373378  .00001619  00000-0  11980-3 0  9998,2 52276  53.2179  30.6601 0001359  92.7585 267.3563 15.08839308120157,6917.883,95.438,540.688,538.807,0.0
52276.0,STARLINK-3778,PAYLOAD,2024-06-23 21:19:43,15.08838572,0.0001355,53.2182,29.4706,98.5411,261.5735,0.00010245,1.343e-05,0.0,0 STARLINK-3778,1 52276U 22041R   24175.88869473  .00001343  00000-0  10245-3 0  9999,2 52276  53.2182  29.4706 0001355  98.5411 261.5735 15.08838572120194,6917.885,95.438,540.687,538.812,0.0
52276.0,STARLINK-3778,PAYLOAD,2024-06-24 00:30:29,15.08839122,0.0001359,53.2182,28.8759,99.0036,261.111,0.00010276,1.348e-05,0.0,0 STARLINK-3778,1 52276U 22041R   24176.02117451  .00001348  00000-0  10276-3 0  9997,2 52276  53.2182  28.8759 0001359  99.0036 261.1110 15.08839122121431,6917.883,95.438,540.688,538.808,0.0
